CZ-2C R/B               
1 54039U 22132E   26050.48613796  .00038629  00000+0  47014-3 0  9994
2 54039  97.2959  53.2755 0019931 150.5977 209.6406 15.60196667187536
GSLV R/B                
1 54149U 22138AN  26050.40143663  .00003575  00000+0  31012-3 0  9998
2 54149  87.3879 172.4815 0020353 212.7150 147.2823 14.96627442181198
XRISM                   
1 57800U 23137A   26050.34680993  .00005086  00000+0  28918-3 0  9990
2 57800  31.0030  42.2797 0008309 216.4510 143.5563 15.11260329135016
ACS3                    
1 59588U 24077B   26050.41924458  .00017463  00000+0  14320-1 0  9996
2 59588  97.2173 355.6395 0048818 129.8178 230.7297 13.88799682 91660
SZ-21 MODULE            
1 66515U 25246C   26050.09062311  .00030016  00000+0  27526-3 0  9991
2 66515  41.4761 317.7232 0001783 298.3543  61.7118 15.67079513 15156
